{
  "norad_id": 53961,
  "name": "SES-21",
  "history": [
    {
      "epoch": "2026-03-28T07:19:03.335808Z",
      "apogee_km": 35790.73155965649,
      "perigee_km": 35780.77750814316,
      "latitude_deg": 0.010584248336299852,
      "longitude_deg": -130.98115678689425,
      "height_km": 35790.11178751294,
      "semi_major_axis_km": 42163.89153389983,
      "eccentricity": 0.00011804,
      "inclination_deg": 0.0266,
      "raan_deg": 72.2465,
      "arg_perigee_deg": 285.389,
      "mean_anomaly_deg": 166.848,
      "mean_motion_rev_day": 1.00274783
    },
    {
      "epoch": "2026-03-29T03:34:38.760672Z",
      "apogee_km": 35791.392603387154,
      "perigee_km": 35782.55479618448,
      "latitude_deg": -0.008558811270112422,
      "longitude_deg": -130.97821890694348,
      "height_km": 35787.26754868746,
      "semi_major_axis_km": 42165.11069978582,
      "eccentricity": 0.0001048,
      "inclination_deg": 0.0284,
      "raan_deg": 69.474,
      "arg_perigee_deg": 299.4337,
      "mean_anomaly_deg": 100.2997,
      "mean_motion_rev_day": 1.00270434
    },
    {
      "epoch": "2026-03-29T09:49:21.478368Z",
      "apogee_km": 35791.361673713975,
      "perigee_km": 35782.484241990445,
      "latitude_deg": 0.017903197364002053,
      "longitude_deg": -130.99389828992545,
      "height_km": 35790.74865897208,
      "semi_major_axis_km": 42165.059957852216,
      "eccentricity": 0.00010527,
      "inclination_deg": 0.0294,
      "raan_deg": 69.2169,
      "arg_perigee_deg": 300.6124,
      "mean_anomaly_deg": 193.3118,
      "mean_motion_rev_day": 1.00270615
    }
  ]
}